STARLINK-35400          
1 66333U 25253Q   25326.16673610 -.01969593  00000+0 -16355-1 0  9990
2 66333  42.9997 105.4625 0001625 276.6732 109.0577 15.72243275  3621
STARLINK-35407          
1 66334U 25253R   25326.16673610 -.01961702  00000+0 -16285-1 0  9997
2 66334  42.9999 105.4785 0001724 274.9154 105.0664 15.72237374  3626
STARLINK-35417          
1 66335U 25253S   25326.16673610 -.01976101  00000+0 -16413-1 0  9990
2 66335  42.9998 105.4392 0001666 273.9972 121.3190 15.72247294  3629
STARLINK-35404          
1 66336U 25253T   25326.16673610 -.01965217  00000+0 -16316-1 0  9999
2 66336  42.9998 105.4540 0001577 276.9577 112.6073 15.72240724  3714
STARLINK-34783          
1 66337U 25253U   25326.16673610 -.01973101  00000+0 -16385-1 0  9997
2 66337  42.9997 105.4348 0001714 278.7753 118.4547 15.72246879  3671
STARLINK-35477          
1 66338U 25253V   25326.16673610 -.01968770  00000+0 -16347-1 0  9992
2 66338  42.9998 105.4448 0001695 277.3882 116.0105 15.72243340  3719
STARLINK-35443          
1 66339U 25253W   25326.16673610 -.01969732  00000+0 -16356-1 0  9992
2 66339  42.9996 105.4192 0001711 278.7216 124.2632 15.72243087  3678
STARLINK-35218          
1 66340U 25253X   25326.16673610 -.01968790  00000+0 -16348-1 0  9998
2 66340  42.9997 105.4484 0001649 275.1276 116.3544 15.72243222  3712
STARLINK-35522          
1 66341U 25253Y   25326.16673610 -.01980129  00000+0 -16449-1 0  9991
2 66341  42.9998 105.4695 0001726 276.0618 107.7505 15.72250072  3716
STARLINK-35535          
1 66342U 25253Z   25326.16673610 -.01974565  00000+0 -16399-1 0  9993
2 66342  42.9998 105.4243 0001728 277.2090 123.8564 15.72247054  3625
STARLINK-35467          
1 66343U 25253AA  25326.16673610 -.01989284  00000+0 -16531-1 0  9996
2 66343  42.9997 105.4285 0001678 276.1637 122.9840 15.72256575  3625
STARLINK-35511          
1 66344U 25253AB  25326.16673610 -.01969890  00000+0 -16358-1 0  9995
2 66344  42.9996 105.4052 0001700 272.4505 136.2871 15.72242618  3621
