CCSDS_OMM_VERS = 2.0
CREATION_DATE  = 
ORIGINATOR     = 

OBJECT_NAME    = STARLINK-35400
OBJECT_ID      = 2025-253Q
CENTER_NAME    = EARTH
REF_FRAME      = TEME
TIME_SYSTEM    = UTC
MEAN_ELEMENT_THEORY = SGP/SGP4

EPOCH          = 2025-11-22T04:00:05.999040
MEAN_MOTION    = 15.72243275
ECCENTRICITY   = .0001625
INCLINATION    = 42.9997
RA_OF_ASC_NODE = 105.4625
ARG_OF_PERICENTER = 276.6732
MEAN_ANOMALY   = 109.0577

EPHEMERIS_TYPE = 0
CLASSIFICATION_TYPE = U
NORAD_CAT_ID   = 66333
ELEMENT_SET_NO = 999
REV_AT_EPOCH   = 362
BSTAR          = -.16355E-1
MEAN_MOTION_DOT = -.1969593E-1
MEAN_MOTION_DDOT = 0

CCSDS_OMM_VERS = 2.0
CREATION_DATE  = 
ORIGINATOR     = 

OBJECT_NAME    = STARLINK-35407
OBJECT_ID      = 2025-253R
CENTER_NAME    = EARTH
REF_FRAME      = TEME
TIME_SYSTEM    = UTC
MEAN_ELEMENT_THEORY = SGP/SGP4

EPOCH          = 2025-11-22T04:00:05.999040
MEAN_MOTION    = 15.72237374
ECCENTRICITY   = .0001724
INCLINATION    = 42.9999
RA_OF_ASC_NODE = 105.4785
ARG_OF_PERICENTER = 274.9154
MEAN_ANOMALY   = 105.0664

EPHEMERIS_TYPE = 0
CLASSIFICATION_TYPE = U
NORAD_CAT_ID   = 66334
ELEMENT_SET_NO = 999
REV_AT_EPOCH   = 362
BSTAR          = -.16285E-1
MEAN_MOTION_DOT = -.1961702E-1
MEAN_MOTION_DDOT = 0

CCSDS_OMM_VERS = 2.0
CREATION_DATE  = 
ORIGINATOR     = 

OBJECT_NAME    = STARLINK-35417
OBJECT_ID      = 2025-253S
CENTER_NAME    = EARTH
REF_FRAME      = TEME
TIME_SYSTEM    = UTC
MEAN_ELEMENT_THEORY = SGP/SGP4

EPOCH          = 2025-11-22T04:00:05.999040
MEAN_MOTION    = 15.72247294
ECCENTRICITY   = .0001666
INCLINATION    = 42.9998
RA_OF_ASC_NODE = 105.4392
ARG_OF_PERICENTER = 273.9972
MEAN_ANOMALY   = 121.3190

EPHEMERIS_TYPE = 0
CLASSIFICATION_TYPE = U
NORAD_CAT_ID   = 66335
ELEMENT_SET_NO = 999
REV_AT_EPOCH   = 362
BSTAR          = -.16413E-1
MEAN_MOTION_DOT = -.1976101E-1
MEAN_MOTION_DDOT = 0

CCSDS_OMM_VERS = 2.0
CREATION_DATE  = 
ORIGINATOR     = 

OBJECT_NAME    = STARLINK-35404
OBJECT_ID      = 2025-253T
CENTER_NAME    = EARTH
REF_FRAME      = TEME
TIME_SYSTEM    = UTC
MEAN_ELEMENT_THEORY = SGP/SGP4

EPOCH          = 2025-11-22T04:00:05.999040
MEAN_MOTION    = 15.72240724
ECCENTRICITY   = .0001577
INCLINATION    = 42.9998
RA_OF_ASC_NODE = 105.4540
ARG_OF_PERICENTER = 276.9577
MEAN_ANOMALY   = 112.6073

EPHEMERIS_TYPE = 0
CLASSIFICATION_TYPE = U
NORAD_CAT_ID   = 66336
ELEMENT_SET_NO = 999
REV_AT_EPOCH   = 371
BSTAR          = -.16316E-1
MEAN_MOTION_DOT = -.1965217E-1
MEAN_MOTION_DDOT = 0

CCSDS_OMM_VERS = 2.0
CREATION_DATE  = 
ORIGINATOR     = 

OBJECT_NAME    = STARLINK-34783
OBJECT_ID      = 2025-253U
CENTER_NAME    = EARTH
REF_FRAME      = TEME
TIME_SYSTEM    = UTC
MEAN_ELEMENT_THEORY = SGP/SGP4

EPOCH          = 2025-11-22T04:00:05.999040
MEAN_MOTION    = 15.72246879
ECCENTRICITY   = .0001714
INCLINATION    = 42.9997
RA_OF_ASC_NODE = 105.4348
ARG_OF_PERICENTER = 278.7753
MEAN_ANOMALY   = 118.4547

EPHEMERIS_TYPE = 0
CLASSIFICATION_TYPE = U
NORAD_CAT_ID   = 66337
ELEMENT_SET_NO = 999
REV_AT_EPOCH   = 367
BSTAR          = -.16385E-1
MEAN_MOTION_DOT = -.1973101E-1
MEAN_MOTION_DDOT = 0

CCSDS_OMM_VERS = 2.0
CREATION_DATE  = 
ORIGINATOR     = 

OBJECT_NAME    = STARLINK-35477
OBJECT_ID      = 2025-253V
CENTER_NAME    = EARTH
REF_FRAME      = TEME
TIME_SYSTEM    = UTC
MEAN_ELEMENT_THEORY = SGP/SGP4

EPOCH          = 2025-11-22T04:00:05.999040
MEAN_MOTION    = 15.72243340
ECCENTRICITY   = .0001695
INCLINATION    = 42.9998
RA_OF_ASC_NODE = 105.4448
ARG_OF_PERICENTER = 277.3882
MEAN_ANOMALY   = 116.0105

EPHEMERIS_TYPE = 0
CLASSIFICATION_TYPE = U
NORAD_CAT_ID   = 66338
ELEMENT_SET_NO = 999
REV_AT_EPOCH   = 371
BSTAR          = -.16347E-1
MEAN_MOTION_DOT = -.196877E-1
MEAN_MOTION_DDOT = 0

CCSDS_OMM_VERS = 2.0
CREATION_DATE  = 
ORIGINATOR     = 

OBJECT_NAME    = STARLINK-35443
OBJECT_ID      = 2025-253W
CENTER_NAME    = EARTH
REF_FRAME      = TEME
TIME_SYSTEM    = UTC
MEAN_ELEMENT_THEORY = SGP/SGP4

EPOCH          = 2025-11-22T04:00:05.999040
MEAN_MOTION    = 15.72243087
ECCENTRICITY   = .0001711
INCLINATION    = 42.9996
RA_OF_ASC_NODE = 105.4192
ARG_OF_PERICENTER = 278.7216
MEAN_ANOMALY   = 124.2632

EPHEMERIS_TYPE = 0
CLASSIFICATION_TYPE = U
NORAD_CAT_ID   = 66339
ELEMENT_SET_NO = 999
REV_AT_EPOCH   = 367
BSTAR          = -.16356E-1
MEAN_MOTION_DOT = -.1969732E-1
MEAN_MOTION_DDOT = 0

CCSDS_OMM_VERS = 2.0
CREATION_DATE  = 
ORIGINATOR     = 

OBJECT_NAME    = STARLINK-35218
OBJECT_ID      = 2025-253X
CENTER_NAME    = EARTH
REF_FRAME      = TEME
TIME_SYSTEM    = UTC
MEAN_ELEMENT_THEORY = SGP/SGP4

EPOCH          = 2025-11-22T04:00:05.999040
MEAN_MOTION    = 15.72243222
ECCENTRICITY   = .0001649
INCLINATION    = 42.9997
RA_OF_ASC_NODE = 105.4484
ARG_OF_PERICENTER = 275.1276
MEAN_ANOMALY   = 116.3544

EPHEMERIS_TYPE = 0
CLASSIFICATION_TYPE = U
NORAD_CAT_ID   = 66340
ELEMENT_SET_NO = 999
REV_AT_EPOCH   = 371
BSTAR          = -.16348E-1
MEAN_MOTION_DOT = -.196879E-1
MEAN_MOTION_DDOT = 0

CCSDS_OMM_VERS = 2.0
CREATION_DATE  = 
ORIGINATOR     = 

OBJECT_NAME    = STARLINK-35522
OBJECT_ID      = 2025-253Y
CENTER_NAME    = EARTH
REF_FRAME      = TEME
TIME_SYSTEM    = UTC
MEAN_ELEMENT_THEORY = SGP/SGP4

EPOCH          = 2025-11-22T04:00:05.999040
MEAN_MOTION    = 15.72250072
ECCENTRICITY   = .0001726
INCLINATION    = 42.9998
RA_OF_ASC_NODE = 105.4695
ARG_OF_PERICENTER = 276.0618
MEAN_ANOMALY   = 107.7505

EPHEMERIS_TYPE = 0
CLASSIFICATION_TYPE = U
NORAD_CAT_ID   = 66341
ELEMENT_SET_NO = 999
REV_AT_EPOCH   = 371
BSTAR          = -.16449E-1
MEAN_MOTION_DOT = -.1980129E-1
MEAN_MOTION_DDOT = 0

CCSDS_OMM_VERS = 2.0
CREATION_DATE  = 
ORIGINATOR     = 

OBJECT_NAME    = STARLINK-35535
OBJECT_ID      = 2025-253Z
CENTER_NAME    = EARTH
REF_FRAME      = TEME
TIME_SYSTEM    = UTC
MEAN_ELEMENT_THEORY = SGP/SGP4

EPOCH          = 2025-11-22T04:00:05.999040
MEAN_MOTION    = 15.72247054
ECCENTRICITY   = .0001728
INCLINATION    = 42.9998
RA_OF_ASC_NODE = 105.4243
ARG_OF_PERICENTER = 277.2090
MEAN_ANOMALY   = 123.8564

EPHEMERIS_TYPE = 0
CLASSIFICATION_TYPE = U
NORAD_CAT_ID   = 66342
ELEMENT_SET_NO = 999
REV_AT_EPOCH   = 362
BSTAR          = -.16399E-1
MEAN_MOTION_DOT = -.1974565E-1
MEAN_MOTION_DDOT = 0

CCSDS_OMM_VERS = 2.0
CREATION_DATE  = 
ORIGINATOR     = 

OBJECT_NAME    = STARLINK-35467
OBJECT_ID      = 2025-253AA
CENTER_NAME    = EARTH
REF_FRAME      = TEME
TIME_SYSTEM    = UTC
MEAN_ELEMENT_THEORY = SGP/SGP4

EPOCH          = 2025-11-22T04:00:05.999040
MEAN_MOTION    = 15.72256575
ECCENTRICITY   = .0001678
INCLINATION    = 42.9997
RA_OF_ASC_NODE = 105.4285
ARG_OF_PERICENTER = 276.1637
MEAN_ANOMALY   = 122.9840

EPHEMERIS_TYPE = 0
CLASSIFICATION_TYPE = U
NORAD_CAT_ID   = 66343
ELEMENT_SET_NO = 999
REV_AT_EPOCH   = 362
BSTAR          = -.16531E-1
MEAN_MOTION_DOT = -.1989284E-1
MEAN_MOTION_DDOT = 0

CCSDS_OMM_VERS = 2.0
CREATION_DATE  = 
ORIGINATOR     = 

OBJECT_NAME    = STARLINK-35511
OBJECT_ID      = 2025-253AB
CENTER_NAME    = EARTH
REF_FRAME      = TEME
TIME_SYSTEM    = UTC
MEAN_ELEMENT_THEORY = SGP/SGP4

EPOCH          = 2025-11-22T04:00:05.999040
MEAN_MOTION    = 15.72242618
ECCENTRICITY   = .00017
INCLINATION    = 42.9996
RA_OF_ASC_NODE = 105.4052
ARG_OF_PERICENTER = 272.4505
MEAN_ANOMALY   = 136.2871

EPHEMERIS_TYPE = 0
CLASSIFICATION_TYPE = U
NORAD_CAT_ID   = 66344
ELEMENT_SET_NO = 999
REV_AT_EPOCH   = 362
BSTAR          = -.16358E-1
MEAN_MOTION_DOT = -.196989E-1
MEAN_MOTION_DDOT = 0

